satname,norad_id,inclination_deg,eccentricity,mean_motion_rev_per_day,perigee_km,apogee_km,l1,l2
STARLINK-1564,46058,53.1624,0.0001137,15.3018117,474.492060458836,476.0505255046601,1 46058U 20055AH  26159.40518921 -.00000611  00000+0 -85171-5 0  9994,2 46058  53.1624  53.0050 0001137  89.6816 270.4315 15.30181170322959
STARLINK-1570,46059,53.1595,6.49e-05,15.3171524,470.250076786715,471.1390551239756,1 46059U 20055AJ  26158.98631313 -.00022407  00000+0 -71213-3 0  9995,2 46059  53.1595  53.8816 0000649  45.2718 314.8336 15.31715240322869
STARLINK-1572,46060,53.1596,0.0001379,15.30190115,474.29950308593925,476.18966572691807,1 46060U 20055AK  26158.99429182 -.00000699  00000+0 -11473-4 0  9999,2 46060  53.1596  54.6630 0001379 111.8752 248.2395 15.30190115322866
STARLINK-1573,46061,53.1606,0.0001256,15.31691363,469.90551960982884,471.6259639785676,1 46061U 20055AL  26158.97234409 -.00001121  00000+0 -24358-4 0  9991,2 46061  53.1606  53.9137 0001256 105.8395 254.2745 15.31691363322906
STARLINK-1577,46063,53.1587,8.94e-05,15.3169358,470.14684166413554,471.3714242927117,1 46063U 20055AN  26159.00030459 -.00001715  00000+0 -43529-4 0  9997,2 46063  53.1587  53.7812 0000894  89.7854 270.3250 15.31693580322904
STARLINK-1583,46064,53.1609,5.46e-05,15.31636921,470.5540779446155,471.3019958466439,1 46064U 20055AP  26159.66689432  .00025063  00000+0  81828-3 0  9994,2 46064  53.1609  51.1755 0000546 154.1142 205.9887 15.31636921322994
STARLINK-1536,46070,53.1598,0.0001177,15.31705736,469.9167857516595,471.5290073713113,1 46070U 20055AV  26158.95038831 -.00008904  00000+0 -27544-3 0  9995,2 46070  53.1598  41.8998 0001177  88.1788 271.9348 15.31705736323061
STARLINK-1542,46073,53.1602,6.91e-05,15.31710068,470.23672787939813,471.18323853247693,1 46073U 20055AY  26159.82300713 -.00004886  00000+0 -14575-3 0  9991,2 46073  53.1602  40.8072 0000691 100.1132 259.9948 15.31710068323145
STARLINK-1549,46074,53.0498,0.0004347,15.29426392,474.54574038134797,480.5060537040363,1 46074U 20055AZ  26159.39198739  .00037076  00000+0  12877-2 0  9994,2 46074  53.0498  39.9771 0004347 109.5779 250.5690 15.29426392323103
STARLINK-1551,46075,53.1604,0.0001004,15.30204689,474.51299380415185,475.8891440883963,1 46075U 20055BA  26159.39611495  .00004911  00000+0  17779-3 0  9993,2 46075  53.1604  39.7424 0001004 102.0689 258.0424 15.30204689323127
STARLINK-1552,46076,53.1626,0.0001184,15.31695749,469.94175872814685,471.5635758013559,1 46076U 20055BB  26159.38411510 -.00000269  00000+0  30811-5 0  9996,2 46076  53.1626  39.4007 0001184  96.2051 263.9085 15.31695749323111
STARLINK-1559,46077,53.0247,0.0001191,15.3844001,449.90844710545844,451.5350812630868,1 46077U 20055BC  26159.83362049  .00061099  00000+0  15850-2 0  9999,2 46077  53.0247   6.7378 0001191 116.5579 243.5546 15.38440010323579
STARLINK-1566,46079,53.164,0.0001422,15.31696099,469.77771196601316,471.72553589065865,1 46079U 20055BE  26159.38875421 -.00001321  00000+0 -30816-4 0  9999,2 46079  53.1640  39.2312 0001422  91.1316 268.9849 15.31696099323134
STARLINK-1568,46080,53.0588,0.0002896,15.54321511,402.161487310721,406.08977382634566,1 46080U 20055BF  26159.71437397  .00052305  00000+0  78753-3 0  9991,2 46080  53.0588 316.0938 0002896  68.5179 291.6139 15.54321511324312
STARLINK-1578,46082,53.164,0.0001541,15.31692075,469.7082037546834,471.81903492556467,1 46082U 20055BH  26159.39314866 -.00000743  00000+0 -12175-4 0  9990,2 46082  53.1640  39.7263 0001541  99.1722 260.9454 15.31692075323122
STARLINK-1579,46083,53.1623,0.0001059,15.3169061,470.0426874319628,471.49328550809787,1 46083U 20055BJ  26159.37943674 -.00002548  00000+0 -70383-4 0  9994,2 46083  53.1623  39.3273 0001059  97.4948 262.6174 15.31690610323127
STARLINK-1622,46128,53.0138,0.0006668,15.85206498,311.27987224058234,320.20683107755485,1 46128U 20057M   26159.83336806  .00231593  00000+0  93330-3 0  9998,2 46128  53.0138 131.0098 0006668  70.1062 184.7115 15.85206498  5995
STARLINK-1623,46129,53.0404,0.0006133,15.75041196,340.3909541298708,348.63695779245245,1 46129U 20057N   26159.83336806  .00120724  00000+0  78645-3 0  9994,2 46129  53.0404 169.2890 0006133  33.9865  20.9421 15.75041196  5914
STARLINK-1596,46141,53.0348,0.0006935,15.59674131,383.9067192980474,393.29218275562107,1 46141U 20057AA  26159.21665285  .00087613  00000+0  10712-2 0  9995,2 46141  53.0348 154.8963 0006935  34.2240 325.9218 15.59674131321339
STARLINK-1597,46142,53.0399,0.000499,15.74742575,342.00878703178296,348.7188408440934,1 46142U 20057AB  26159.41971747  .00095524  00000+0  63338-3 0  9994,2 46142  53.0399 211.0955 0004990  28.7886 331.3407 15.74742575320555
STARLINK-1606,46144,53.0321,0.000217,15.94792616,287.4455564586806,290.3390471756693,1 46144U 20057AD  26159.83336806  .00383945  69424-4  98326-3 0  9995,2 46144  53.0321 161.8120 0002170 154.5336 236.1095 15.94792616  5945
STARLINK-1608,46146,53.1575,0.0004791,15.36076752,454.4490527842572,460.99917490354164,1 46146U 20057AF  26159.50271393  .00054287  00000+0  15223-2 0  9998,2 46146  53.1575 246.1370 0004791 342.2645  17.8190 15.36076752320103
STARLINK-1667,46155,53.01,0.0006331,15.91227571,294.61942785618976,303.07382452367165,1 46155U 20057AQ  26159.83336806  .00332971  52648-4  10280-2 0  9992,2 46155  53.0100 130.1536 0006331  72.3050 225.7670 15.91227571  5993
STARLINK-1545,46156,53.0366,0.0001495,15.86428256,311.3059114349726,313.3063539316445,1 46156U 20057AR  26159.83336806  .00278247  00000+0  10520-2 0  9995,2 46156  53.0366 166.5028 0001495  92.4113 161.1148 15.86428256  5996
STARLINK-1595,46159,53.0409,0.0005539,15.72656488,347.58075720980287,355.0356365989337,1 46159U 20057AU  26159.83336806 -.00006251  00000+0 -41031-4 0  9997,2 46159  53.0409 211.8056 0005539  20.3956 338.1677 15.72656488  5909
STARLINK-1598,46160,53.0424,0.0001321,15.72472845,350.94309497496124,352.72115281749484,1 46160U 20057AV  26159.83336806 -.00008821  00000+0 -60375-4 0  9996,2 46160  53.0424 197.9643 0001321 330.5005 173.0418 15.72472845  6015
STARLINK-1626,46167,53.0397,0.000153,15.75700952,341.6090020727506,343.6655590025948,1 46167U 20057BC  26159.83336806  .00030815  00000+0  20037-3 0  9999,2 46167  53.0397 207.3974 0001530  64.8578 151.4381 15.75700952  5955
STARLINK-1633,46171,53.0327,0.0001577,15.83482695,319.544118757477,321.65690056802487,1 46171U 20057BG  26159.83336806  .00212405  00000+0  93269-3 0  9998,2 46171  53.0327 168.4016 0001577 103.7078  91.2192 15.83482695  5980
